IRIDIUM 119             
1 42959U 17061E   24217.76734444  .00000613  00000+0  21181-3 0  9994
2 42959  86.3989 310.0131 0002475  93.8795 266.2683 14.34218554357142
IRIDIUM 107             
1 42960U 17061F   24218.55382825 -.00000115  00000+0 -48275-4 0  9999
2 42960  86.3986 309.7016 0002274  90.7285 269.4171 14.34217227357272
IRIDIUM 132             
1 42961U 17061G   24218.49039872  .00000579  00000+0  19952-3 0  9995
2 42961  86.3991 309.7126 0002266  88.0998 272.0457 14.34218055357258
IRIDIUM 136             
1 42962U 17061H   24217.75466180  .00000050  00000+0  10833-4 0  9994
2 42962  86.3990 310.0234 0002607  96.2971 263.8521 14.34217902357164
IRIDIUM 139             
1 42963U 17061J   24218.31915052  .00000404  00000+0  13714-3 0  9998
2 42963  86.3991 309.8383 0002421  86.6255 273.5218 14.34217322357256
IRIDIUM 125             
1 42964U 17061K   24217.74831833  .00000539  00000+0  18540-3 0  9990
2 42964  86.3994 310.1255 0002724  92.2823 267.8685 14.34219016357181
IRIDIUM 135             
1 43070U 17083A   24217.58290398  .00000263  00000+0  86867-4 0  9992
2 43070  86.3932 246.8342 0001991  95.8989 264.2434 14.34218444346456
IRIDIUM 138             
1 43071U 17083B   24217.81758267  .00000090  00000+0  25140-4 0  9998
2 43071  86.3923 246.4473 0002653  94.7616 265.3883 14.34218393346474
